"district","name","open_close","type","address","floor_area","no_stores_mallwebsite","store_directory","no_stores_streetdirectory","streetdirectory","notes","lon","lat"
"Central","313@Somerset","open","mall","313 Orchard Rd, 238895",NA,136,"http://www.313somerset.com.sg/store-directory/az-directory",215,"http://www.streetdirectory.com/sg/313somerset/313-orchard-road-238895/44799_144263.html",NA,103.8385606,1.3012586
"Central","Bugis Cube","open","mall","470, North Bridge Rd, Singapore 408936",5574,35,"http://bugiscube.com.sg/discover.html",54,"http://www.streetdirectory.com/sg/bugis-cube/470-north-bridge-road-188735/8149_13729.html",NA,103.8555266,1.2980966
"Central","Bugis Junction","open","mall","200 Victoria St, Singapore 188021",NA,233,"http://www.bugisjunction-mall.com.sg/en/store-locator-list/",309,"http://www.streetdirectory.com/sg/bugis-junction/200-victoria-street-188021/983_13072.html",NA,103.8556033,1.2996125
"Central","Bugis plus","open","mall","201 Victoria Street, Singapore 188067",18052,94,"http://www.bugisplus.com.sg/en/store-locator-list/",80,"http://www.streetdirectory.com/sg/bugis/201-victoria-street-188067/44833_144264.html",NA,103.8543046,1.2995969
"Central","Clarke Quay Central","open","mall","6 Eu Tong Sen Street, Singapore 059817",18638,163,"http://www.clarkequaycentral.com.sg/home/index.aspx?key=directory",190,"http://www.streetdirectory.com/sg/the-central/6-eu-tong-sen-street-059817/32407_2642.html",NA,103.8466651,1.2891106
"Central","The Centrepoint","open","mall","176 Orchard Rd, Singapore 238843",53563,90,"http://thecentrepoint.fraserscentrepointmalls.com/store.php?Mode=Category&CategoryID=594",216,"http://www.streetdirectory.com/sg/the-centrepoint/176-orchard-road-238843/11787_22941.html",NA,103.8398259,1.3019817
"Central","City Square Mall","open","mall","180 Kitchener Rd, Singapore 208539",4552,186,"http://citysquaremall.com.sg/shops-alphabet.php",364,"http://www.streetdirectory.com/sg/city-square-mall/180-kitchener-road-208539/35548_144734.html",NA,103.8566714,1.3114946
"Central","Great World City","open","mall","1 Kim Seng Promenade, Great World City, Singapore 237994",51609,168,"http://www.greatworldcity.com.sg/shop-directory/shop-directory-list-view/",413,"http://www.streetdirectory.com/sg/great-world-city/1-kim-seng-promenade-237994/3248_22246.html",NA,103.832088,1.293984
"Central","Holland Village Shopping Mall","open","mall","3-7 Lorong Liput, Singapore 277725",NA,30,"http://www.holland-village-singapore.com/holland-v-shopping-mall/",0,"http://www.streetdirectory.com/sg/holland-road-shopping-centre/211-holland-avenue-278967/3807_33364.html",NA,103.7952451,1.3107138
"Central","ION Orchard","open","mall","2 Orchard Turn, Singapore 238801",87487,319,"http://www.ionorchard.com/en/store.html?view=category",411,"http://www.streetdirectory.com/sg/ion-orchard/2-orchard-turn-238801/33501_144258.html",NA,103.8319412,1.3038952
"Central","Liang Court","open","mall","177 River Valley Rd, Singapore 179030",23656,94,"http://www.liangcourt.com.sg/stores/",152,"http://www.streetdirectory.com/sg/liang-court/177-river-valley-road-179030/5077_12874.html",NA,103.8446088,1.2915315
"Central","Marina Bay Sands","open","mall","10 Bayfront Ave, Singapore 018956",NA,200,"https://www.marinabaysands.com/shopping/store-directory.html",71,"http://www.streetdirectory.com/sg/marina-bay-sands/10-bayfront-avenue-018956/29884_146276.html","Resort+Casino+Hotel+Theatre",103.8600328,1.2826023
"Central","Mustafa Shopping Centre","open","dep_store","145 Syed Alwi Road, Singapore 207704",37161,NA,"http://www.mustafa.com.sg/",6,"http://www.streetdirectory.com/sg/mustafa-centre/145-syed-alwi-road-207704/5979_16286.html","Department Store",103.8551362,1.3102388
"Central","Ngee Ann City","open","mall","391 Orchard Rd, Singapore 238873",110452,148,"http://www.ngeeanncity.com.sg/shopdirectory/",176,"http://www.streetdirectory.com/sg/ngee-ann-city/391-orchard-road-238872/6214_22978.html",NA,103.834289,1.302707
"Central","Orchard Central","open","mall","181 Orchard Rd, Singapore 238896",36045,106,"http://www.orchardcentral.com.sg/index.aspx?key=directory-list",232,"http://www.streetdirectory.com/sg/orchard-central/181-orchard-road-238896/45913_144403.html",NA,103.8397382,1.3006313
"Central","Orchard Gateway","open","mall","218 Orchard Rd, Singapore 238851",16723,117,"http://www.orchardgateway.sg/directory",191,"http://www.streetdirectory.com/sg/orchard-gateway/277-orchard-road-238858/8441_22961.html",NA,103.838784,1.301615
"Central","Pearls Centre","closed","mall","100 Eu Tong Sen Street, Singapore 059812",NA,NA,NA,170,"http://www.streetdirectory.com/sg/pearls-centre/100-eu-tong-sen-street-059812/6731_2637.html","CLOSED",103.840885,1.282122
"Central","People's Park Centre","open","mall","101 Upper Cross St, Singapore 058357",NA,38,"http://www.peoplesparkcentre.com/directory.html",692,"http://www.streetdirectory.com/sg/peoples-park-centre/101-upper-cross-street-058357/6787_1302.html",NA,103.843945,1.285697
"Central","People's Park Complex","open","mall","1 Park Road, Singapore 059108",78503,NA,NA,269,"http://www.streetdirectory.com/sg/peoples-park-complex/1-park-road-059108/6788_2072.html",NA,103.8425309,1.284095
"Central","Plaza Singapura","open","mall","68 Orchard Rd, Singapore 238839",58436,322,"http://www.plazasingapura.com.sg/en/store-locator-list/",405,"http://www.streetdirectory.com/sg/plaza-singapura/68-orchard-road-238839/6889_22936.html",NA,103.8451045,1.3006139
"Central","PoMo","open","mall","1 Selegie Rd, Singapore 188306",NA,50,"http://pomo.com.sg/shop/",66,"http://www.streetdirectory.com/sg/pomo/1-selegie-road-188306/6588_13373.html",NA,103.849316,1.3001259
"Central","Raffles City","open","mall","252 North Bridge Road, Singapore 179103",39179,253,"http://www.rafflescity.com.sg/store-guide/",414,"http://www.streetdirectory.com/sg/raffles-city-shopping-centre/252-north-bridge-road-179103/7133_12889.html",NA,103.8533445,1.293906
"Central","Raffles Holland V","closed","mall",NA,NA,NA,NA,0,"http://www.streetdirectory.com/sg/raffles-holland-v/118-holland-avenue-278997/106086_414271.html","NEW",NA,NA
"Central","Sim Lim Square","open","mall","1 Rochor Canal Rd, Singapore 188504",NA,453,"http://www.simlimsquare.com.sg/store_list.php",537,"http://www.streetdirectory.com/sg/sim-lim-square/1-rochor-canal-road-188504/8021_13571.html",NA,103.8530261,1.3030999
"Central","The South Beach","closed","mall","30 Beach Rd, Singapore 189763",13641,NA,"http://thesouthbeach.com.sg/",0,"http://www.streetdirectory.com/sg/south-beach-uc-top-2016/30-beach-road-189763/56490_153503.html","NEW",103.8558153,1.2939578
"Central","Tanglin Mall","open","mall","163 Tanglin Rd, Singapore 247933",NA,99,"http://www.tanglinmall.com.sg/shop-directory/shop-directory-list-view/",131,"http://www.streetdirectory.com/sg/tanglin-mall/163-tanglin-road-247933/8885_23850.html",NA,103.8238875,1.3049275
"Central","Tang Plaza","open","dep_store","310 ORCHARD ROAD SINGAPORE 238864",NA,NA,NA,49,"http://www.streetdirectory.com/sg/tang-plaza/310-orchard-road-238864/1790_22967.html","Department Store",103.833087,1.305029
"Central","Tekka Centre","open","market","665 Buffalo Rd, Singapore 210665",NA,NA,NA,110,"http://www.streetdirectory.com/asiatravel/singaporemap/business/161598/338044/","Wet Market",103.850551,1.306197
"Central","The Verge","open","mall","2 Serangoon Rd, Singapore 218227",22160,54,"http://www.theverge.com.sg/all-tenants/",53,"http://www.streetdirectory.com/sg/the-verge/2-serangoon-road-218227/9001_19500.html",NA,103.851162,1.3053347
"Central","Wheelock Place","open","mall","501 Orchard Rd, Singapore 238880",NA,81,"http://www.wheelockplace.com/store-guide",144,"http://www.streetdirectory.com/sg/wheelock-place/501-orchard-road-238880/9797_22985.html",NA,103.8307272,1.3047917
"Central","Wisma Atria","open","mall","435 Orchard Rd, Singapore 238877",21368,64,"http://www.wismaonline.com/?ch=english_store",215,"http://www.streetdirectory.com/sg/wisma-atria/435-orchard-road-238877/16639_22982.html",NA,103.833155,1.3037183
"Marina Centre","Marina Square","open","mall","6 Raffles Boulevard, Singapore 039594",NA,227,"http://www.marinasquare.com.sg/m/directory/all",426,"http://www.streetdirectory.com/sg/marina-square/6-raffles-boulevard-039594/5409_32.html",NA,103.8567143,1.2923357
"Marina Centre","Millenia Walk","open","mall","9 Raffles Boulevard, Singapore 039596",NA,88,"http://www.milleniawalk.com/shops",218,"http://www.streetdirectory.com/sg/millenia-walk/9-raffles-boulevard-039596/5724_35.html",NA,103.859401,1.2927292
"Marina Centre","Suntec City mall","open","mall","3 Temasek Blvd, Singapore 038983",82498,370,"http://sunteccity.com.sg/directory_listing/",534,"http://www.streetdirectory.com/sg/suntec-city-mall/3-temasek-boulevard-038983/8675_19.html",NA,103.8597116,1.2957491
"East","112 Katong","open","mall","112 East Coast Road, Singapore 428802",19231,109,"http://112katong.com.sg/stores/",235,"http://www.streetdirectory.com/sg/112-katong/112-east-coast-road-428802/4509_63046.html",NA,103.904622,1.305511
"East","Bedok Mall","open","mall","311 New Upper Changi Rd, Singapore 467360",20439,203,"http://bedokmall.com.sg/en/store-locator-list/",177,"http://www.streetdirectory.com/sg/bedok-mall/311-new-upper-changi-road-467360/101179_400723.html",NA,103.9392919,1.3250553
"East","Bedok Point","open","mall","799 New Upper Changi Road, Singapore 467351",12411,45,"http://bedokpoint.fraserscentrepointmalls.com/store.php?CategoryID=594",56,"http://www.streetdirectory.com/sg/bedok-point/799-new-upper-changi-road-467351/36372_74363.html",NA,103.9322989,1.3245739
"East","Century Square","open","mall","2 Tampines Central 5, Singapore 529509",29589,130,"http://www.centurysquare.com.sg/stores/",241,"http://www.streetdirectory.com/sg/century-square/2-tampines-central-5-529509/1343_84099.html",NA,103.9438363,1.352739
"East","Changi Airport","open","mall","Airport Boulevard, Changi Airport 819285",NA,237,"http://www.changiairport.com/en/shop-and-dine/shopping.html#nogo",NA,NA,NA,103.9915308,1.3644202
"East","Changi City Point","open","mall","5 Changi Business Park Central 1, Singapore 486038",60387,118,"http://changicitypoint.fraserscentrepointmalls.com/store.php",164,"http://www.streetdirectory.com/sg/changi-city-point/5-changi-business-park-central-1-486038/55949_147705.html",NA,103.9627633,1.3340622
"East","East Village","open","mall","430 Upper Changi Road, Singapore 487048",NA,80,"http://www.east-village.sg/mall-directory/",30,"http://www.streetdirectory.com/sg/east-village/371a-bedok-road-469549/1394_76074.html",NA,103.9467344,1.332673
"East","Eastpoint Mall","open","mall","3 Simei Street 6, Singapore 528833",19896,128,"http://eastpoint.fraserscentrepointmalls.com/store.php?CategoryID=594",160,"http://www.streetdirectory.com/sg/eastpoint-mall-east-point/3-simei-street-6-528833/2374_84012.html",NA,103.952974,1.342806
"East","Kallang Wave Mall","open","mall","1 Stadium Place, Singapore 397628",NA,78,"http://www.sportshub.com.sg/kallangwave/PublishingImages/Directories/KW-Directory-150629.png",60,"http://www.streetdirectory.com/sg/kallang-wave-mall/1-stadium-place-397628/103199_407753.html",NA,103.8742828,1.3043885
"East","Katong V","open","mall","30 E Coast Rd, 428751",NA,26,"http://www.katongv.com.sg/index.aspx?key=directory-by-category",36,"http://www.streetdirectory.com/sg/katong-v/30-east-coast-road-428751/101176_62983.html",NA,103.902914,1.3037749
"East","Leisure Park Kallang","open","mall","5 Stadium Walk, Singapore 397693",17466,80,"http://www.leisurepark.com.sg/directory",115,"http://www.streetdirectory.com/sg/leisure-park-kallang/5-stadium-walk-397693/4463_51094.html",NA,103.876445,1.3023579
"East","One KM","open","mall","11 Tanjong Katong Rd, OneKM, Singapore 436950",NA,48,"http://www.onekm.com.sg/shop-category/fashion-accessories-shoes/",77,"http://www.streetdirectory.com/sg/one-km/11-tanjong-katong-road-437157/57187_400699.html",NA,103.8947592,1.3148498
"East","Parkway Parade","open","mall","80 Marine Parade Rd, Singapore 449269",52119,277,"http://www.parkwayparade.com.sg/store-directory#/",539,"http://www.streetdirectory.com/sg/parkway-parade/80-marine-parade-road-449269/6629_67702.html",NA,103.9052955,1.3014083
"East","Paya Lebar Square","open","mall","60 Paya Lebar Rd, Singapore 409051",NA,112,"http://www.payalebarsquare.sg/shop_directory.aspx",29,"http://www.streetdirectory.com/sg/paya-lebar-square/60-paya-lebar-road-409051/56910_401346.html",NA,103.8925723,1.3188953
"East","Tampines 1","open","mall","10 Tampines Central 1, Singapore 529536",24619,173,"http://www.tampines1.com.sg/stores/",229,"http://www.streetdirectory.com/sg/tampines-1/10-tampines-central-1-529536/41474_84101.html",NA,103.9450223,1.3542047
"East","Tampines Mall","open","mall","4 Tampines Central 5, Singapore 529510",29234,173,"http://www.tampinesmall.com.sg/en/store-locator-list/",200,"http://www.streetdirectory.com/sg/tampines-mall/4-tampines-central-5-529510/8813_84100.html",NA,103.945245,1.3526609
"East","White Sands","open","mall","1 Pasir Ris Central Street 3, Singapore 519599",13791,33,"http://whitesandsmall.com/directory.htm",156,"http://www.streetdirectory.com/sg/white-sands/1-pasir-ris-central-street-3-518457/9800_82582.html",NA,103.9497693,1.3724663
"North","AMK Hub","open","mall","53 Ang Mo Kio Avenue 3, Singapore 569933",32516,200,"http://www.amkhub.com.sg/stores/",270,"http://www.streetdirectory.com/asiatravel/singaporemap/business/156157/326992/",NA,103.848122,1.369017
"North","Causeway Point","open","mall","1 Woodlands Square, Singapore 738099",39019,220,"http://causewaypoint.fraserscentrepointmalls.com/store.php?CategoryID=594",330,"http://www.streetdirectory.com/sg/causeway-point/1-woodlands-square-738099/1274_123331.html",NA,103.7862541,1.4358403
"North","Junction 8","open","mall","9 Bishan Pl, Singapore 579837",35000,168,"http://www.junction8.com.sg/en/store-locator-list/",256,"http://www.streetdirectory.com/sg/junction-8-shopping-centre/9-bishan-place-579837/820_106649.html",NA,103.8486223,1.3503209
"North","Junction 9","closed","mall",NA,NA,NA,NA,NA,NA,"NEW",NA,NA
"North","Northpoint Shopping Centre","open","mall","930 Yishun Ave 2, Singapore 769098",21832,146,"http://northpoint.fraserscentrepointmalls.com/store.php?CategoryID=594",225,"http://www.streetdirectory.com/sg/northpoint-shopping-centre/930-yishun-avenue-2-769098/6294_126857.html",NA,103.8361296,1.4295656
"North","Sembawang Shopping Centre","open","mall","604 Sembawang Rd, Singapore 758459",NA,77,"http://www.sembawangsc.com.sg/en/store-locator-list/",99,"http://www.streetdirectory.com/sg/sembawang-shopping-centre/604-sembawang-road-758459/7749_125142.html",NA,103.824824,1.441872
"North","Square 2","open","mall","10 Sinaran Dr, Singapore 307506",NA,171,"http://www.square2.com.sg/home/index.aspx?key=shop-directory&shops=name",116,"http://www.streetdirectory.com/sg/square-2/10-sinaran-drive-307506/31387_143147.html",NA,103.8442023,1.3207731
"North","Sun Plaza","open","mall","30 Sembawang Dr, Singapore 757713",NA,104,"http://www.sunplaza.sg/directory.html",100,"http://www.streetdirectory.com/sg/sun-plaza/30-sembawang-drive-757713/8626_124540.html",NA,103.8195041,1.4482171
"North","Thomson Plaza","open","mall","301 Upper Thomson Rd, Singapore 574408",NA,175,"http://www.thomsonplaza.com.sg/directory.html",145,"http://www.streetdirectory.com/sg/thomson-plaza/301-upper-thomson-road-574408/9161_101983.html",NA,103.8309888,1.3546971
"North","Toa Payoh HDB Hub","open","mall","460 Lorong 6 Toa Payoh, Singapore 310460",NA,186,"http://toapayohshoppingmall.com/",122,"http://www.streetdirectory.com/sg/courts-toa-payoh/460-lorong-6-toa-payoh-310460/53504_40135.html",NA,103.849886,1.331948
"North","Velocity Novena Square","open","mall","238 Thomson Rd, Singapore 307683",18581,120,"http://www.velocitynovena.com/",79,"http://www.streetdirectory.com/sg/velocity-novena-square/238-thomson-road-307683/32098_37946.html",NA,103.8438568,1.3199826
"North East","1 Sengkang Mall","closed","mall","1 Sengkang Square, Compass Point, Singapore 545078",25084,NA,NA,173,"http://www.streetdirectory.com/sg/compass-point/1-sengkang-square-545078/1909_90496.html","CLOSED",103.894775,1.392272
"North East","Greenwich V","open","mall","1 Seletar Road, Singapore 807011",NA,25,"http://www.greenwichv.com.sg/index.aspx?key=directory-bycategory",20,"http://www.streetdirectory.com/sg/greenwich-v/1-seletar-road-807011/53197_148279.html",NA,103.8686576,1.3871503
"North East","Heartland Mall","open","mall","205 Hougang Street 21, Singapore 530205",NA,106,"http://heartlandmall.com.sg/?page_id=42",81,"http://www.streetdirectory.com/sg/atm-heartland-mall-branch/205-hougang-street-21-530205/104214_84320.html",NA,103.8851749,1.3594258
"North East","Hougang 1","open","mall","1 Hougang Street 91, Singapore 538692",NA,37,"http://www.hougang1.com.sg/index.aspx?key=directory-by-category",40,"http://www.streetdirectory.com/sg/hougang-1/1-hougang-street-91-538692/3948_88979.html",NA,103.879482,1.376022
"North East","Hougang Green Shopping Mall","open","mall","21 Hougang Street 51, Singapore 538719",NA,NA,NA,70,"http://www.streetdirectory.com/sg/hougang-green-shopping-mall/21-hougang-street-51-538719/3943_88982.html",NA,103.888221,1.379502
"North East","Hougang Mall","open","mall","90 Hougang Avenue 10, Singapore 538766",20160,135,"http://www.hougangmall.com.sg/stores/",184,"http://www.streetdirectory.com/sg/hougang-mall/90-hougang-avenue-10-538766/29281_88992.html",NA,103.8937797,1.3724307
"North East","The Midtown","closed","mall",NA,NA,NA,"http://www.themidtown.net/p/the-midtown-hougang-floor-plans.html",NA,NA,"NEW",NA,NA
"North East","myVillage @ Serangoon","open","mall","1 Maju Ave, Singapore 556679",NA,38,"http://myvillage.sg/directory/",40,"http://www.streetdirectory.com/sg/myvillage-at-serangoon-garden/1-maju-avenue-556679/53325_96644.html",NA,103.865262,1.3652169
"North East","NEX","open","mall","23 Serangoon Central, Singapore 556083",55742,321,"http://www.nex.com.sg/index.php/directory.html",420,"http://www.streetdirectory.com/sg/nex/23-serangoon-central-556083/47454_144639.html",NA,103.8723743,1.3504465
"North East","Serangoon Plaza","open","mall","320 Serangoon Road, Singapore 218108",NA,NA,NA,125,"http://www.streetdirectory.com/sg/serangoon-plaza/320-serangoon-road-218108/7833_19286.html",NA,103.8551002,1.3108714
"North East","Rivervale Mall","open","mall","11 Rivervale Crescent, Singapore 545082",7897,NA,NA,73,"http://www.streetdirectory.com/sg/rivervale-mall/11-rivervale-crescent-545082/7314_90500.html",NA,103.9044211,1.392256
"North East","Rivervale Plaza","open","mall","118 Rivervale Drive, Singapore 540118",NA,84,"http://www.where2shop.sg/fi10/fi10334p.nsf/w/ShopperRivervalePlazaFloorPlan?OpenDocument",38,"http://www.streetdirectory.com/sg/rivervale-plaza/118-rivervale-drive-540118/7315_90010.html",NA,103.901579,1.385427
"North East","The Seletar Mall","open","mall","33 SengKang West Avenue, The Seletar Mall, Singapore 797653",17466,137,"https://www.theseletarmall.com/stores",117,"http://www.streetdirectory.com/sg/the-seletar-mall/33-sengkang-west-avenue-797653/100969_403879.html",NA,103.8685848,1.3866028
"North East","Upper Serangoon Shopping Centre","open","mall","756 Upper Serangoon Rd, Singapore 534626",NA,NA,NA,14,"http://www.streetdirectory.com/sg/upper-serangoon-shopping-centre/756-upper-serangoon-road-534626/9551_85294.html",NA,103.8788469,1.353469
"North East","Waterway Point","open","mall","83 Punggol Central, Singapore 828761",34451,194,"http://waterwaypoint.fraserscentrepointmalls.com/store.php?CategoryID=594",181,"http://www.streetdirectory.com/sg/waterway-point-shopping-centre/83-punggol-central-828761/105012_402571.html",NA,103.9020717,1.4052945
"North West","Beauty World Plaza","open","mall","140 Upper Bukit Timah Rd, Singapore 588176",NA,NA,NA,130,"http://www.streetdirectory.com/sg/beauty-world-plaza/140-upper-bukit-timah-road-588176/672_107044.html",NA,103.7759908,1.3415369
"North West","Bukit Panjang Plaza","open","mall","1 Jelebu Road, Singapore 677743",NA,140,"http://www.bukitpanjangplaza.com.sg/en/store-locator-list/",124,"http://www.streetdirectory.com/sg/bukit-panjang-plaza/1-jelebu-road-677743/11622_119099.html",NA,103.7641529,1.379962
"North West","Bukit Timah Plaza","open","mall","1 Jln Anak Bukit, Singapore 588996",NA,127,"http://www.bukittimahplaza.net/directory/",212,"http://www.streetdirectory.com/sg/bukit-timah-plaza/1-jalan-anak-bukit-588996/1071_107523.html",NA,103.778668,1.3389092
"North West","Fajar Shopping Centre","open","mall","445 Fajar Rd, Singapore 670445",NA,NA,NA,35,"http://www.streetdirectory.com/sg/fajar-shopping-centre/445-fajar-road-670445/12639_118924.html",NA,103.770558,1.383802
"North West","Greenridge Shopping Centre","open","mall","524A Jelapang Rd, Singapore 671524",NA,47,"http://www.shopgreenridge.com/directory/by-cat/",35,"http://www.streetdirectory.com/sg/greenridge-shopping-centre/524a-jelapang-road-671524/3275_119074.html",NA,103.76636,1.384827
"North West","Hillion Mall","closed","mall",NA,NA,NA,NA,NA,NA,"NEW",NA,NA
"North West","HillV2","open","mall","4 Hillview Rise, Singapore 667979",NA,27,"http://www.hillv2.com.sg/index.aspx?key=storeguide-listing",2,"http://www.streetdirectory.com/sg/the-hillier-hillv2/4-hillview-rise-667979/57062_400808.html",NA,103.7643979,1.3633667
"North West","Junction 10","open","mall","1 Woodlands Rd, Singapore 677899",8361,33,"http://www.junction10.com.sg/index.aspx?key=directory-by-category",36,"http://www.streetdirectory.com/sg/junction-10/1-woodlands-road-677899/9053_119225.html",NA,103.760383,1.37978
"North West","Limbang Shopping Centre","open","mall","533 Choa Chu Kang Street 51, Singapore 680534",NA,43,"http://www.where2shop.sg/fi10/fi10334p.nsf/w/ShopperLimbangSCFloorPlan?OpenDocument",24,"http://www.streetdirectory.com/sg/limbang-shopping-centre/534-choa-chu-kang-street-51-680534/5123_120677.html",NA,103.743131,1.392015
"North West","Lot One","open","mall","21 Choa Chu Kang Ave 4, Singapore 689812",28012,159,"http://www.lotone.com.sg/en/store-locator-list/",118,"http://www.streetdirectory.com/asiatravel/singaporemap/business/216379/421932/",NA,103.745088,1.3851464
"North West","Rail Mall","open","mall","380 Upper Bukit Timah Rd, Singapore 678040",NA,27,"http://www.railmall.com.sg/shop/",23,"http://www.streetdirectory.com/sg/the-rail-mall/386-upper-bukit-timah-road-678043/7152_119373.html",NA,103.7681855,1.3577623
"North West","Teck Whye Shopping Centre","open","mall","137 Teck Whye Ln, Singapore 680137",NA,12,"http://services2.hdb.gov.sg/webapp/AA16RMSBusinessDirectory/AA16SLevelmap?SearchOption=1&BLK=137&STREET=Teck+Whye+Lane&pcode=680137&STREETLIST=--&MAIN_TRADE_CODE=0000Please+Select+Category%24&Forward=&FROMHOME=true&Slvl=1&SEARCHPANEL=1&MAIN_TRADE_DESC_HI",5,"http://www.streetdirectory.com/sg/teck-whye-shopping-centre/137-teck-whye-lane-680137/16093_120455.html",NA,103.7525063,1.3799529
"North West","West Mall","open","mall","1 Bukit Batok Central Link, Singapore 658713",17001,115,"http://www.westmall.com.sg/stores.php",159,"http://www.streetdirectory.com/sg/west-mall/1-bukit-batok-central-link-658713/9759_117437.html",NA,103.749107,1.349649
"North West","Yew Tee Point","open","mall","21 Choa Chu Kang North 6, Singapore 689578",6777,71,"http://yewteepoint.fraserscentrepointmalls.com/store.php?CategoryID=594",111,"http://www.streetdirectory.com/sg/yew-tee-point/21-choa-chu-kang-north-6-689578/44703_144282.html",NA,103.7467518,1.3970999
"South","Alexandra Retail Centre","open","mall","460 Alexandra Rd, Singapore 119963",NA,71,"http://www.arc4u.com.sg/shop-directory.aspx",144,"http://www.streetdirectory.com/sg/alexandra-retail-centre/460-alexandra-road-119963/7041_7675.html",NA,103.8013952,1.2739505
"South","HarbourFront Centre","open","mall","1 Maritime Square, 099253",NA,155,"http://www.harbourfrontcentre.com.sg/store.php?CategoryID=594",331,"http://www.streetdirectory.com/sg/harbourfront-centre/1-maritime-square-099253/12980_5629.html",NA,103.8202769,1.2640768
"South","Marina Bay Link Mall","open","mall","8A Marina Boulevard, Singapore 018984",NA,85,"http://www.marinabaylink.com.sg/directory/store-name.html",41,"http://www.streetdirectory.com/sg/marina-bay-link-mall/8a-marina-boulevard-018984/52759_147272.html",NA,103.8541949,1.2801731
"South","Queensway Shopping Centre","open","mall","1 Queensway, Singapore 149053",NA,NA,"http://www.queenswayshoppingcentre.com/",164,"http://www.streetdirectory.com/sg/queensway-shopping-centre/1-queensway-149053/7116_11046.html",NA,103.8033221,1.287537
"South","VivoCity","open","mall","1 Harbourfront Walk, Singapore 098585",139355,334,"http://www.vivocity.com.sg/directory",583,"http://www.streetdirectory.com/sg/vivocity/1-harbourfront-walk-098585/18561_143128.html",NA,103.8223265,1.2642411
"West","Anchorpoint","open","mall","370 Alexandra Road, Singapore 159953",NA,20,"http://anchorpoint.fraserscentrepointmalls.com/store.php?CategoryID=594",69,"http://www.streetdirectory.com/sg/anchorpoint-shopping-centre/370-alexandra-road-159953/280_11691.html",NA,103.8052469,1.2885452
"West","Big Box","open","mall","1 Venture Ave, Singapore 608521",NA,20,"http://www.bigbox.com.sg/shop/malldirectory/",5,"http://www.streetdirectory.com/sg/big-box/1-venture-avenue-608521/51190_407500.html",NA,103.7445214,1.3308357
"West","Boon Lay Shopping Centre","open","mall","221 Boon Lay Pl, Singapore 640221",NA,163,"http://www.where2shop.sg/fi10/fi10334p.nsf/w/ShopperBoonLaySCFloorPlan?OpenDocument",124,"http://www.streetdirectory.com/sg/boon-lay-shopping-centre/221-boon-lay-place-640221/878_115486.html",NA,103.7127554,1.3462189
"West","The Clementi Mall","open","mall","3155 Commonwealth Avenue West, Singapore 129588",NA,142,"https://www.theclementimall.com/stores",161,"http://www.streetdirectory.com/sg/the-clementi-mall/3155-commonwealth-avenue-west-129588/53296_152633.html",NA,103.7642368,1.3149421
"West","Fairprice Hub","open","dep_store","1 Joo Koon Cir, Singapore 629117",NA,NA,"http://www.fairprice.com.sg/webapp/wcs/stores/servlet/en/fairprice",14,"http://www.streetdirectory.com/sg/fairprice-hub/1-joo-koon-circle-629117/103923_402314.html","Department Store",103.6788361,1.3273513
"West","Gek Poh Shopping Centre","open","mall","762 Jurong West Street 75, Singapore 640762",NA,66,"http://www.where2shop.sg/fi10/fi10334p.nsf/w/ShopperGekPohSCFloorPlan?OpenDocument",49,"http://www.streetdirectory.com/sg/gek-poh-shopping-centre/762-jurong-west-street-75-640762/47120_115810.html",NA,103.698195,1.349156
"West","IMM","open","mall","2 Jurong East Street 21, Singapore 609601",87754,217,"http://www.imm.sg/en/store-locator-list/",586,"http://www.streetdirectory.com/sg/imm-building/2-jurong-east-street-21-609601/4119_111676.html",NA,103.746872,1.334938
"West","JCube","open","mall","2 Jurong East Central 1, Singapore 609731",19510,142,"http://www.jcube.com.sg/en/store-locator-list/",120,"http://www.streetdirectory.com/sg/jcube/2-jurong-east-central-1-609731/30986_111691.html",NA,103.740277,1.33352
"West","Jem","open","mall","50 Jurong Gateway Road, Singapore 608549",75995,268,"http://www.jem.sg/store-name.php?Store=&ResultLimit=268",38,"http://www.streetdirectory.com/sg/jurong-east-mall-jem/no.-50-jurong-gateway-road-608549/100036_1.html",NA,103.743657,1.3330657
"West","Jurong Point","open","mall","1 Jurong West Central 2, Singapore 648886",69677,432,"http://www.jurongpoint.com.sg/store-listing",536,"http://www.streetdirectory.com/sg/jurong-point/1-jurong-west-central-2-648886/4388_116714.html",NA,103.7057463,1.3395626
"West","Pioneer Mall","open","mall","638 Jurong West Street 61, Singapore 640638",NA,39,"http://www.where2shop.sg/fi10/fi10334p.nsf/w/ShopperPioneerMallFloorPlan?OpenDocument",0,"http://www.streetdirectory.com/sg/pioneer-mall/638-jurong-west-street-61-640638/6871_115698.html",NA,103.697171,1.341721
"West","Rochester Mall","open","mall","35 Rochester Dr, Singapore 138639",NA,36,"http://www.rochestermall.com.sg/#01-01",24,"http://www.streetdirectory.com/sg/rochester-mall/35-rochester-drive-138639/56753_145487.html",NA,103.788392,1.30528
"West","The Star Vista","open","mall","1 Vista Exchange Green, Singapore 138617",NA,110,"http://www.thestarvista.com/en/store-locator-list/",84,"http://www.streetdirectory.com/sg/the-star-vista/1-vista-exchange-green-138617/45834_152184.html",NA,103.78844,1.306842
"West","Taman Jurong Shopping Centre","open","mall","399 Yung Sheng Rd, Singapore 610399",NA,80,"http://www.where2shop.sg/fi10/fi10334p.nsf/w/ShopperTamanJurongSCFloorPlan?OpenDocument",63,"http://www.streetdirectory.com/sg/taman-jurong-shopping-centre/399-yung-sheng-road-610399/8795_111839.html",NA,103.721053,1.3347739
"West","Tiong Bahru Plaza","open","mall","302 Tiong Bahru Rd, Singapore 168732",17709,65,"http://www.tiongbahruplaza.com.sg/stores/",183,"http://www.streetdirectory.com/sg/tiong-bahru-plaza/302-tiong-bahru-road-168732/9221_12090.html",NA,103.8271874,1.2864777
"West","West Coast Plaza","open","mall","154 West Coast Rd, Singapore 127371",14864,91,"http://www.westcoastplaza.com.sg/home/index.aspx?key=shop-byname",182,"http://www.streetdirectory.com/sg/west-coast-plaza/154-west-coast-road-127371/3054_8403.html",NA,103.7662433,1.3036444
"West","Westgate Mall","open","mall","3 Gateway Dr, Singapore 608532",38090,243,"http://westgate.com.sg/en/store-locator-list/",285,"http://www.streetdirectory.com/sg/westgate/3-gateway-drive-608532/100598_402908.html",NA,103.8247713,1.2647406
